ONEWEB-0589             
1 54655U 22166P   25205.73397584 -.00000736  00000+0 -18135-2 0  9999
2 54655  87.9275 309.3176 0002052 125.0292 235.1035 13.21822397128282
ONEWEB-0590             
1 54656U 22166Q   25205.83318194  .00000044  00000+0  73996-4 0  9999
2 54656  87.9269 309.2757 0001506 101.9974 258.1329 13.21827254128281
ONEWEB-0591             
1 54657U 22166R   25205.84594397  .00000049  00000+0  87012-4 0  9991
2 54657  87.9274 309.2963 0001916 104.3495 255.7851 13.21825183128313
ONEWEB-0592             
1 54658U 22166S   25205.84910007  .00000037  00000+0  58366-4 0  9999
2 54658  87.9279 309.2471 0001902 104.1566 255.9779 13.21824821128190
ONEWEB-0593             
1 54659U 22166T   25205.72136338  .00000013  00000+0 -26958-6 0  9993
2 54659  87.9273 309.3111 0001977 106.1113 254.0238 13.21825567128759
ONEWEB-0594             
1 54660U 22166U   25205.81597975 -.00000036  00000+0 -11980-3 0  9995
2 54660  87.9278 309.3071 0002027  98.8701 261.2663 13.21824794128313
ONEWEB-0595             
1 54661U 22166V   25205.79390314  .00000007  00000+0 -14078-4 0  9990
2 54661  87.9274 309.2881 0001871  94.6366 265.4982 13.21825976128284
ONEWEB-0596             
1 54662U 22166W   25205.84278831 -.00000045  00000+0 -14099-3 0  9991
2 54662  87.9277 309.2926 0001922 100.3106 259.8245 13.21824887128292
